ADRAS-J                 
1 58992U 24034A   24104.59858044  .00005112  00000+0  48624-3 0  9995
2 58992  98.2079  74.7463 0042151 260.7801  98.8648 14.93262918  8228
